{
    "links": {
        "self": "http://www.neowsapp.com/rest/v1/neo/3843714?api_key=iIulBulltgU6a56xZRHN4H3l9WmuAYTsLGpBGhQ2"
    },
    "id": "3843714",
    "neo_reference_id": "3843714",
    "name": "(2019 QT6)",
    "designation": "2019 QT6",
    "nasa_jpl_url": "http://ssd.jpl.nasa.gov/sbdb.cgi?sstr=3843714",
    "absolute_magnitude_h": 24.793,
    "estimated_diameter": {
        "kilometers": {
            "estimated_diameter_min": 0.0292384925,
            "estimated_diameter_max": 0.0653792567
        },
        "meters": {
            "estimated_diameter_min": 29.2384924611,
            "estimated_diameter_max": 65.3792567027
        },
        "miles": {
            "estimated_diameter_min": 0.0181679513,
            "estimated_diameter_max": 0.0406247741
        },
        "feet": {
            "estimated_diameter_min": 95.9268156061,
            "estimated_diameter_max": 214.4988805604
        }
    },
    "is_potentially_hazardous_asteroid": false,
    "close_approach_data": [
        {
            "close_approach_date": "2019-08-14",
            "close_approach_date_full": "2019-Aug-14 06:26",
            "epoch_date_close_approach": 1565763960000,
            "relative_velocity": {
                "kilometers_per_second": "8.276447102",
                "kilometers_per_hour": "29795.2095670294",
                "miles_per_hour": "18513.5845223578"
            },
            "miss_distance": {
                "astronomical": "0.0337210817",
                "lunar": "13.1175007813",
                "kilometers": "5044601.996415979",
                "miles": "3134570.3286153502"
            },
            "orbiting_body": "Earth"
        }
    ],
    "orbital_data": {
        "orbit_id": "3",
        "orbit_determination_date": "2020-01-19 05:15:20",
        "first_observation_date": "2019-08-30",
        "last_observation_date": "2019-09-07",
        "data_arc_in_days": 8,
        "observations_used": 25,
        "orbit_uncertainty": "8",
        "minimum_orbit_intersection": ".0233947",
        "jupiter_tisserand_invariant": "3.846",
        "epoch_osculation": "2458731.5",
        "eccentricity": ".4789965794686725",
        "semi_major_axis": "1.859460471296289",
        "inclination": "3.788700965442301",
        "ascending_node_longitude": "166.4243463846809",
        "orbital_period": "926.144714614967",
        "perihelion_distance": ".9687852658881605",
        "perihelion_argument": "128.5265001493165",
        "aphelion_distance": "2.750135676704417",
        "perihelion_time": "2458687.842555272346",
        "mean_anomaly": "16.97000463743882",
        "mean_motion": ".3887081514573729",
        "equinox": "J2000",
        "orbit_class": {
            "orbit_class_type": "APO",
            "orbit_class_description": "Near-Earth asteroid orbits which cross the Earth’s orbit similar to that of 1862 Apollo",
            "orbit_class_range": "a (semi-major axis) > 1.0 AU; q (perihelion) < 1.017 AU"
        }
    },
    "is_sentry_object": false
}